IRIDIUM 171             
1 43929U 19002H   24346.17605229  .00000546  00000+0  18782-3 0  9993
2 43929  86.3997 224.8844 0001639  91.9248 268.2136 14.34219537309699
IRIDIUM 170             
1 43930U 19002J   24346.11194622  .00001037  00000+0  16065-3 0  9997
2 43930  86.6121 224.6995 0002372  85.1229 275.0259 14.72242051317888
IRIDIUM 167             
1 43931U 19002K   24345.75108120  .00000597  00000+0  20615-3 0  9991
2 43931  86.3989 224.8344 0001679  78.9054 281.2330 14.34224972309636
IRIDIUM 181             
1 56726U 23068S   24345.93348955  .00000859  00000+0  24787-3 0  9991
2 56726  86.6855 286.9438 0001962  93.5106 266.6320 14.43610353 82632
IRIDIUM 177             
1 56727U 23068T   24346.13862550  .00000141  00000+0  15013-4 0  9994
2 56727  86.1990 231.3231 0002175  77.4646 282.6818 14.80215740 84555
IRIDIUM 174             
1 56728U 23068U   24346.13321334  .00001997  00000+0  25938-3 0  9991
2 56728  86.1995 231.4433 0002185  94.6923 265.4547 14.80227016 84553
IRIDIUM 178             
1 56729U 23068V   24345.85737092  .00003042  00000+0  39669-3 0  9991
2 56729  86.5777 257.3977 0001889  97.2773 262.8663 14.80252831 84517
IRIDIUM 179             
1 56730U 23068W   24345.71676254  .00003488  00000+0  45535-3 0  9993
2 56730  86.6782 263.8159 0002305  89.2259 270.9227 14.80249121 84495
